ACS3                    
1 59588U 24077B   24168.15002249  .00000115  00000+0  16935-3 0  9992
2 59588  97.4060 236.5713 0021629  97.5308 262.8301 13.67686039  7268
